
STRATOSAT-TK 1 (RS52S)  
1 57167U 23091B   25032.49129272  .00043790  00000+0  15910-2 0  9999
2 57167  97.5756  92.8407 0011807  46.1482 314.0731 15.28084829 88371
UMKA 1 (RS40S)          
1 57172U 23091G   25032.47437007  .00011471  00000+0  65367-3 0  9994
2 57172  97.5790  88.6023 0016503  59.5518 300.7340 15.12846778 88097
CUBESX-HSE 3 (RS42S)    
1 57178U 23091N   25032.45380873  .00017661  00000+0  90126-3 0  9994
2 57178  97.5818  89.9750 0015788  50.9869 309.2767 15.16676722 88162
MONITOR-3 (RS58S)       
1 57180U 23091Q   25032.49150704  .00015724  00000+0  82995-3 0  9992
2 57180  97.5815  89.5701 0016370  52.1545 308.1166 15.15503299 88143
MONITOR-4 (RS57S)       
1 57182U 23091S   25032.49132614  .00016223  00000+0  85545-3 0  9993
2 57182  97.5809  89.5290 0016429  52.7714 307.5015 15.15530999 88143
MONITOR-2 (RS39S)       
1 57184U 23091U   25032.47328777  .00009584  00000+0  55667-3 0  9994
2 57184  97.5820  88.9858 0014179  50.5988 309.6495 15.12241212 88105
SVYATOBOR 1 (RS60S)     
1 57187U 23091X   25032.46080151  .00014252  00000+0  74973-3 0  9996
2 57187  97.5816  90.2379 0012914  45.3006 314.9276 15.15690000 88185
VIZARD-METEO (RS38S)    
1 57189U 23091Z   25032.47893689  .00019800  00000+0  94726-3 0  9999
2 57189  97.5806  91.3818 0011459  40.9466 319.2627 15.18961156 88263
NANOZOND 1 (RS49S)      
1 57190U 23091AA  25032.44416846  .00035893  00000+0  13711-2 0  9998
2 57190  97.5767  93.3723 0008840  39.7966 320.3919 15.26503160 88408
POLYTECH-UNIVERSE 3 (R*)
1 57191U 23091AB  25032.47839044  .00009795  00000+0  56697-3 0  9994
2 57191  97.5788  88.5761 0019288  65.0124 295.3107 15.12282250 88090
UTMN 2 (RS27S)          
1 57203U 23091AP  25032.45893296  .00017442  00000+0  86477-3 0  9992
2 57203  97.5805  90.9436 0011925  41.7927 318.4215 15.17739734 88234
ARCCUBE 1 (RS25S)       
1 57205U 23091AR  25032.44561725  .00050374  00000+0  16667-2 0  9996
2 57205  97.5706  94.2269 0008266  37.1739 323.0072 15.31133917 88477
KUZGTU 1 (RS47S)        
1 57217U 23091AV  25032.50185223  .00017987  00000+0  92868-3 0  9992
2 57217  97.5794  89.7215 0015836  52.3368 307.9298 15.16261182 88161
SONATE-2                
1 59112U 24043Q   25031.81839972  .00023595  00000+0  83299-3 0  9996
2 59112  97.4968 161.1670 0011756 209.5588 150.4989 15.29162942 50611
MESAT1                  
1 60209U 24125G   25031.85701657  .00026341  00000+0  91833-3 0  9993
2 60209  97.2943 245.3504 0020306 237.3071 122.6212 15.29414287 32239
OOV-CUBE (TUBSAT-30)    
1 60240U 24128F   25032.51164080  .00005684  00000+0  47700-3 0  9999
2 60240  61.9968 166.7810 0036870  23.5447 336.7320 14.98958288 30954
COLIBRI-S (RS67S)       
1 61746U 24199M   25032.50813877  .00022985  00000+0  85217-3 0  9991
2 61746  97.3768 262.1955 0012039 282.2621  77.7270 15.27555591 60500
HORS 3 (RS81S)          
1 61753U 24199U   25032.50569624  .00027712  00000+0  10164-2 0  9998
2 61753  97.3740 262.1685 0010609 292.0296  67.9816 15.27887708 60501
HORS 4 (RS82S)          
1 61754U 24199V   25032.49305720  .00028018  00000+0  10157-2 0  9994
2 61754  97.3738 262.1837 0010661 292.7160  67.2952 15.28268896 60509
HORIZON (RS59S)         
1 61757U 24199Y   25032.46126391  .00034881  00000+0  12242-2 0  9991
2 61757  97.3763 262.2551 0011575 281.1637  78.8302 15.29273751 60504
SIT-2086                
1 61764U 24199AF  25032.45829311  .00030520  00000+0  10832-2 0  9999
2 61764  97.3741 262.2320 0009057 293.7845  66.2445 15.28961545 57345
MORDOVIA-IOT (RS50S)    
1 61765U 24199AG  25032.47552488  .00042574  00000+0  14264-2 0  9995
2 61765  97.3761 262.3876 0011084 277.6577  82.3405 15.30744058 57369
RUZAEVKA 390 (RS44S)    
1 61766U 24199AH  25032.48382167  .00039544  00000+0  13408-2 0  9994
2 61766  97.3760 262.3735 0010953 277.0077  82.9918 15.30375770 57362
HYPERVIEW 1G (RS66S)    
1 61772U 24199AP  25032.52564858  .00031640  00000+0  11547-2 0  9996
2 61772  97.3737 262.1397 0014614 294.0970  65.8741 15.27976263 57357
ALTAIR (RS65S)          
1 61779U 24199AW  25032.46335870  .00015895  00000+0  62660-3 0  9993
2 61779  97.3746 261.9272 0015292 294.6103  65.3542 15.25552190 60489
ASRTU-1 (AO-123)        
1 61781U 24199AY  25032.47413430  .00014821  00000+0  58762-3 0  9992
2 61781  97.3745 261.9127 0015472 294.8021  65.1607 15.25374277 57339
TUSUR GO (RS78S)        
1 61782U 24199AZ  25032.47945475  .00037014  00000+0  13567-2 0  9994
2 61782  97.3736 262.0515 0015564 293.9811  65.9798 15.27784653 57347
SAMSAT-IONOSPHERE (RS7*)
1 61784U 24199BB  25032.49408207  .00028068  00000+0  10533-2 0  9994
2 61784  97.3743 262.0334 0015586 294.1576  65.8033 15.27066435 60493
RTU MIREA 1 (RS51S)     
1 61785U 24199BC  25032.49056922  .00028852  00000+0  10782-2 0  9995
2 61785  97.3742 262.0381 0015453 293.8151  66.1468 15.27201461 57349
